IXPE                    
1 49954U 21121A   24211.58335648  .00005392  00000+0  36888-3 0  9994
2 49954   0.2305  78.4613 0008807 191.8698 222.3506 14.98774028144275
